{"type": "FeatureCollection", "features": [ {"type": "Feature", "properties": {"norad_id": 66610, "name": "STARLINK-35680", "group": "last-30-days", "lat": 34.56792965314299, "lon": -74.261224831769, "alt_km": 428.94944408514584, "timestamp": "2025-12-19T10:49:59.922327+00:00", "meta": {"OBJECT_NAME": "STARLINK-35680", "OBJECT_ID": "2025-270Y", "EPOCH": "2025-12-19T00:00:02.000160", "MEAN_MOTION": 15.46342752, "ECCENTRICITY": 0.00015865, "INCLINATION": 42.9997, "RA_OF_ASC_NODE": 156.0413, "ARG_OF_PERICENTER": 288.9279, "MEAN_ANOMALY": 200.6202, "EPHEMERIS_TYPE": 0, "CLASSIFICATION_TYPE": "U", "NORAD_CAT_ID": 66610, "ELEMENT_SET_NO": 999, "REV_AT_EPOCH": 551, "BSTAR": -0.043871724, "MEAN_MOTION_DOT": -0.01981426, "MEAN_MOTION_DDOT": 0}, "tle": {"line1": "1 66610U 25270Y   25353.00002315 -.01981426  00000+0 -43872-1 0  9991", "line2": "2 66610  42.9997 156.0413 0001586 288.9279 200.6202 15.46342752  5518"}}, "geometry": {"type": "Point", "coordinates": [-74.261224831769, 34.56792965314299]}}, {"type": "Feature", "properties": {"norad_id": 66611, "name": "STARLINK-35583", "group": "last-30-days", "lat": 26.319226607758498, "lon": -58.682786270872285, "alt_km": 413.55631295107287, "timestamp": "2025-12-19T10:49:59.922338+00:00", "meta": {"OBJECT_NAME": "STARLINK-35583", "OBJECT_ID": "2025-270Z", "EPOCH": "2025-12-18T21:51:42.184224", "MEAN_MOTION": 15.50080389, "ECCENTRICITY": 0.00037731, "INCLINATION": 42.9989, "RA_OF_ASC_NODE": 156.5389, "ARG_OF_PERICENTER": 233.564, "MEAN_ANOMALY": 126.4872, "EPHEMERIS_TYPE": 0, "CLASSIFICATION_TYPE": "U", "NORAD_CAT_ID": 66611, "ELEMENT_SET_NO": 999, "REV_AT_EPOCH": 541, "BSTAR": -0.0050396687, "MEAN_MOTION_DOT": -0.00280742, "MEAN_MOTION_DDOT": 0}, "tle": {"line1": "1 66611U 25270Z   25352.91090491 -.00280742  00000+0 -50397-2 0  9996", "line2": "2 66611  42.9989 156.5389 0003773 233.5640 126.4872 15.50080389  5412"}}, "geometry": {"type": "Point", "coordinates": [-58.682786270872285, 26.319226607758498]}}, {"type": "Feature", "properties": {"norad_id": 66612, "name": "STARLINK-36039", "group": "last-30-days", "lat": -42.776745908061876, "lon": 57.142706376444096, "alt_km": 446.0971782680881, "timestamp": "2025-12-19T10:49:59.922348+00:00", "meta": {"OBJECT_NAME": "STARLINK-36039", "OBJECT_ID": "2025-270AA", "EPOCH": "2025-12-18T19:41:08.412000", "MEAN_MOTION": 15.40721846, "ECCENTRICITY": 0.00017768, "INCLINATION": 42.999, "RA_OF_ASC_NODE": 157.586, "ARG_OF_PERICENTER": 278.8459, "MEAN_ANOMALY": 81.2197, "EPHEMERIS_TYPE": 0, "CLASSIFICATION_TYPE": "U", "NORAD_CAT_ID": 66612, "ELEMENT_SET_NO": 999, "REV_AT_EPOCH": 528, "BSTAR": 0.00062139604, "MEAN_MOTION_DOT": 0.0002576, "MEAN_MOTION_DDOT": 0}, "tle": {"line1": "1 66612U 25270AA  25352.82023625  .00025760  00000+0  62140-3 0  9997", "line2": "2 66612  42.9990 157.5860 0001776 278.8459  81.2197 15.40721846  5283"}}, "geometry": {"type": "Point", "coordinates": [57.142706376444096, -42.776745908061876]}}, {"type": "Feature", "properties": {"norad_id": 66613, "name": "STARLINK-36037", "group": "last-30-days", "lat": -39.848402411178455, "lon": 90.29120298492349, "alt_km": 446.1219565527035, "timestamp": "2025-12-19T10:49:59.922359+00:00", "meta": {"OBJECT_NAME": "STARLINK-36037", "OBJECT_ID": "2025-270AB", "EPOCH": "2025-12-18T21:08:01.810464", "MEAN_MOTION": 15.40745253, "ECCENTRICITY": 0.00014795, "INCLINATION": 42.9986, "RA_OF_ASC_NODE": 157.1775, "ARG_OF_PERICENTER": 259.665, "MEAN_ANOMALY": 100.4039, "EPHEMERIS_TYPE": 0, "CLASSIFICATION_TYPE": "U", "NORAD_CAT_ID": 66613, "ELEMENT_SET_NO": 999, "REV_AT_EPOCH": 529, "BSTAR": 0.0009126067, "MEAN_MOTION_DOT": 0.00038066, "MEAN_MOTION_DDOT": 0}, "tle": {"line1": "1 66613U 25270AB  25352.88057651  .00038066  00000+0  91261-3 0  9999", "line2": "2 66613  42.9986 157.1775 0001479 259.6650 100.4039 15.40745253  5298"}}, "geometry": {"type": "Point", "coordinates": [90.29120298492349, -39.848402411178455]}}, {"type": "Feature", "properties": {"norad_id": 66614, "name": "STARLINK-36040", "group": "last-30-days", "lat": 26.9656147820726, "lon": -173.29076983412742, "alt_km": 440.1707107475386, "timestamp": "2025-12-19T10:49:59.922371+00:00", "meta": {"OBJECT_NAME": "STARLINK-36040", "OBJECT_ID": "2025-270AC", "EPOCH": "2025-12-19T00:00:02.000160", "MEAN_MOTION": 15.40674656, "ECCENTRICITY": 0.00019593, "INCLINATION": 42.9996, "RA_OF_ASC_NODE": 156.219, "ARG_OF_PERICENTER": 287.2284, "MEAN_ANOMALY": 128.0247, "EPHEMERIS_TYPE": 0, "CLASSIFICATION_TYPE": "U", "NORAD_CAT_ID": 66614, "ELEMENT_SET_NO": 999, "REV_AT_EPOCH": 524, "BSTAR": 0.0013950553, "MEAN_MOTION_DOT": 0.0005837, "MEAN_MOTION_DDOT": 0}, "tle": {"line1": "1 66614U 25270AC  25353.00002315  .00058370  00000+0  13951-2 0  9991", "line2": "2 66614  42.9996 156.2190 0001959 287.2284 128.0247 15.40674656  5244"}}, "geometry": {"type": "Point", "coordinates": [-173.29076983412742, 26.9656147820726]}}, {"type": "Feature", "properties": {"norad_id": 66615, "name": "STARLINK-35988", "group": "last-30-days", "lat": -21.780103618832545, "lon": 128.4077909528904, "alt_km": 445.505868562198, "timestamp": "2025-12-19T10:49:59.922382+00:00", "meta": {"OBJECT_NAME": "STARLINK-35988", "OBJECT_ID": "2025-270AD", "EPOCH": "2025-12-19T00:00:02.000160", "MEAN_MOTION": 15.4065151, "ECCENTRICITY": 0.00015838, "INCLINATION": 42.9988, "RA_OF_ASC_NODE": 156.4013, "ARG_OF_PERICENTER": 268.5463, "MEAN_ANOMALY": 72.0896, "EPHEMERIS_TYPE": 0, "CLASSIFICATION_TYPE": "U", "NORAD_CAT_ID": 66615, "ELEMENT_SET_NO": 999, "REV_AT_EPOCH": 524, "BSTAR": 0.0015815317, "MEAN_MOTION_DOT": 0.0006623, "MEAN_MOTION_DDOT": 0}, "tle": {"line1": "1 66615U 25270AD  25353.00002315  .00066230  00000+0  15815-2 0  9997", "line2": "2 66615  42.9988 156.4013 0001583 268.5463  72.0896 15.40651510  5248"}}, "geometry": {"type": "Point", "coordinates": [128.4077909528904, -21.780103618832545]}}, {"type": "Feature", "properties": {"norad_id": 66616, "name": "STARLINK-35391", "group": "last-30-days", "lat": 38.7327145250038, "lon": -147.0416966176535, "alt_km": 438.7497642685448, "timestamp": "2025-12-19T10:49:59.922398+00:00", "meta": {"OBJECT_NAME": "STARLINK-35391", "OBJECT_ID": "2025-270AE", "EPOCH": "2025-12-19T00:00:02.000160", "MEAN_MOTION": 15.40674724, "ECCENTRICITY": 0.00017165, "INCLINATION": 42.9998, "RA_OF_ASC_NODE": 156.1589, "ARG_OF_PERICENTER": 279.6476, "MEAN_ANOMALY": 160.4996, "EPHEMERIS_TYPE": 0, "CLASSIFICATION_TYPE": "U", "NORAD_CAT_ID": 66616, "ELEMENT_SET_NO": 999, "REV_AT_EPOCH": 551, "BSTAR": 0.0012835549, "MEAN_MOTION_DOT": 0.00053647, "MEAN_MOTION_DDOT": 0}, "tle": {"line1": "1 66616U 25270AE  25353.00002315  .00053647  00000+0  12836-2 0  9996", "line2": "2 66616  42.9998 156.1589 0001716 279.6476 160.4996 15.40674724  5515"}}, "geometry": {"type": "Point", "coordinates": [-147.0416966176535, 38.7327145250038]}}, {"type": "Feature", "properties": {"norad_id": 66617, "name": "STARLINK-35940", "group": "last-30-days", "lat": -40.67683294042754, "lon": 115.34038715698107, "alt_km": 452.52210669524993, "timestamp": "2025-12-19T10:49:59.922409+00:00", "meta": {"OBJECT_NAME": "STARLINK-35940", "OBJECT_ID": "2025-271A", "EPOCH": "2025-12-19T00:00:02.000160", "MEAN_MOTION": 15.39596888, "ECCENTRICITY": 0.00013918, "INCLINATION": 53.1586, "RA_OF_ASC_NODE": 157.5858, "ARG_OF_PERICENTER": 105.8265, "MEAN_ANOMALY": 216.5412, "EPHEMERIS_TYPE": 0, "CLASSIFICATION_TYPE": "U", "NORAD_CAT_ID": 66617, "ELEMENT_SET_NO": 999, "REV_AT_EPOCH": 524, "BSTAR": 0.00083644886, "MEAN_MOTION_DOT": 0.00033178, "MEAN_MOTION_DDOT": 0}, "tle": {"line1": "1 66617U 25271A   25353.00002315  .00033178  00000+0  83645-3 0  9992", "line2": "2 66617  53.1586 157.5858 0001391 105.8265 216.5412 15.39596888  5240"}}, "geometry": {"type": "Point", "coordinates": [115.34038715698107, -40.67683294042754]}}, {"type": "Feature", "properties": {"norad_id": 66618, "name": "STARLINK-35970", "group": "last-30-days", "lat": 17.738392462560704, "lon": -38.84746165556648, "alt_km": 416.6994160381355, "timestamp": "2025-12-19T10:49:59.922420+00:00", "meta": {"OBJECT_NAME": "STARLINK-35970", "OBJECT_ID": "2025-271B", "EPOCH": "2025-12-18T21:46:16.468320", "MEAN_MOTION": 15.49335101, "ECCENTRICITY": 7.172e-05, "INCLINATION": 53.159, "RA_OF_ASC_NODE": 157.6323, "ARG_OF_PERICENTER": 82.1987, "MEAN_ANOMALY": 277.9103, "EPHEMERIS_TYPE": 0, "CLASSIFICATION_TYPE": "U", "NORAD_CAT_ID": 66618, "ELEMENT_SET_NO": 999, "REV_AT_EPOCH": 516, "BSTAR": 0.00091874022, "MEAN_MOTION_DOT": 0.0005103, "MEAN_MOTION_DDOT": 0}, "tle": {"line1": "1 66618U 25271B   25352.90713505  .00051030  00000+0  91874-3 0  9991", "line2": "2 66618  53.1590 157.6323 0000717  82.1987 277.9103 15.49335101  5162"}}, "geometry": {"type": "Point", "coordinates": [-38.84746165556648, 17.738392462560704]}}, {"type": "Feature", "properties": {"norad_id": 66619, "name": "STARLINK-35951", "group": "last-30-days", "lat": 47.93989847203757, "lon": -81.06834162597514, "alt_km": 412.18933517445475, "timestamp": "2025-12-19T10:49:59.922430+00:00", "meta": {"OBJECT_NAME": "STARLINK-35951", "OBJECT_ID": "2025-271C", "EPOCH": "2025-12-18T21:58:02.908416", "MEAN_MOTION": 15.49330751, "ECCENTRICITY": 3.025e-05, "INCLINATION": 53.1595, "RA_OF_ASC_NODE": 157.6881, "ARG_OF_PERICENTER": 13.8139, "MEAN_ANOMALY": 346.2878, "EPHEMERIS_TYPE": 0, "CLASSIFICATION_TYPE": "U", "NORAD_CAT_ID": 66619, "ELEMENT_SET_NO": 999, "REV_AT_EPOCH": 516, "BSTAR": 0.00049867102, "MEAN_MOTION_DOT": 0.00027404, "MEAN_MOTION_DDOT": 0}, "tle": {"line1": "1 66619U 25271C   25352.91531144  .00027404  00000+0  49867-3 0  9993", "line2": "2 66619  53.1595 157.6881 0000302  13.8139 346.2878 15.49330751  5162"}}, "geometry": {"type": "Point", "coordinates": [-81.06834162597514, 47.93989847203757]}}]}